{
  "norad_id": 61540,
  "name": "STARLINK-11350 [DTC]",
  "history": [
    {
      "epoch": "2026-03-28T20:42:10.248768Z",
      "apogee_km": 360.440451199549,
      "perigee_km": 359.0125631651081,
      "latitude_deg": -3.5804623065645706e-05,
      "longitude_deg": 4.561998504119147,
      "height_km": 360.3103074939913,
      "semi_major_axis_km": 6737.863507182328,
      "eccentricity": 0.00010596,
      "inclination_deg": 53.159,
      "raan_deg": 141.3817,
      "arg_perigee_deg": 62.4718,
      "mean_anomaly_deg": 297.6407,
      "mean_motion_rev_day": 15.69710085
    }
  ]
}